STARLINK-30940          
1 58409U 23180H   26068.83408658 -.00002763  00000+0 -90928-4 0  9995
2 58409  43.0025 266.6490 0002280 277.2266  82.8327 15.27570165129358
LYNK TOWER 6            
1 59123U 24043AB  26068.89488777  .00011440  00000+0  40142-3 0  9996
2 59123  97.5426 204.1954 0009749 232.0253 128.0107 15.29548678111845
